{
  "type": "FeatureCollection",
  "generator": "overpass-turbo",
  "copyright": "The data included in this document is from www.openstreetmap.org. The data is made available under ODbL.",
  "timestamp": "2026-09-27T00:12:20Z",
  "features": [
    {
      "type": "Feature",
      "properties": {
        "@id": "way/288509220",
        "highway": "track"
      },
      "geometry": {
        "type": "LineString",
        "coordinates": [
          [
            -84.6243132,
            34.6478298
          ],
          [
            -84.6244458,
            34.6476104
          ],
          [
            -84.6245747,
            34.6474036
          ],
          [
            -84.6247573,
            34.6472356
          ],
          [
            -84.6248239,
            34.647172
          ],
          [
            -84.6248712,
            34.6471154
          ],
          [
            -84.6249228,
            34.64705
          ],
          [
            -84.6249443,
            34.6468344
          ],
          [
            -84.6249077,
            34.6466541
          ],
          [
            -84.6248347,
            34.6464897
          ],
          [
            -84.6247423,
            34.6463624
          ],
          [
            -84.624652,
            34.6462334
          ],
          [
            -84.6245419,
            34.6460536
          ],
          [
            -84.6244689,
            34.6458079
          ],
          [
            -84.6244581,
            34.645686
          ],
          [
            -84.6244796,
            34.6455958
          ],
          [
            -84.6245673,
            34.6453351
          ],
          [
            -84.6247772,
            34.6451048
          ],
          [
            -84.624853,
            34.6449993
          ],
          [
            -84.6248821,
            34.6448315
          ],
          [
            -84.624888,
            34.6445245
          ],
          [
            -84.6248413,
            34.6442847
          ],
          [
            -84.6246548,
            34.6438866
          ],
          [
            -84.6245265,
            34.6435365
          ],
          [
            -84.62434,
            34.642985
          ],
          [
            -84.6241593,
            34.6427212
          ],
          [
            -84.6239028,
            34.6426061
          ],
          [
            -84.6237104,
            34.6424814
          ],
          [
            -84.6236171,
            34.6423855
          ],
          [
            -84.6235355,
            34.6421744
          ],
          [
            -84.6234072,
            34.6419442
          ],
          [
            -84.6232731,
            34.6417236
          ],
          [
            -84.6231682,
            34.6415317
          ],
          [
            -84.6231915,
            34.6412392
          ],
          [
            -84.6232848,
            34.6408746
          ],
          [
            -84.623314,
            34.6405197
          ],
          [
            -84.6232557,
            34.6402991
          ],
          [
            -84.623174,
            34.6401696
          ],
          [
            -84.6230516,
            34.6400305
          ],
          [
            -84.6229875,
            34.6397955
          ],
          [
            -84.6228595,
            34.6394691
          ],
          [
            -84.6227606,
            34.6393153
          ],
          [
            -84.6226983,
            34.6391633
          ],
          [
            -84.6226511,
            34.6390254
          ],
          [
            -84.6225651,
            34.6389228
          ],
          [
            -84.6224169,
            34.6387761
          ],
          [
            -84.6223223,
            34.6386418
          ],
          [
            -84.6222751,
            34.6384915
          ],
          [
            -84.6222514,
            34.6383306
          ],
          [
            -84.6222901,
            34.6381397
          ],
          [
            -84.6223911,
            34.6378392
          ],
          [
            -84.6225071,
            34.6375864
          ],
          [
            -84.6225866,
            34.6374379
          ],
          [
            -84.6228316,
            34.6371586
          ],
          [
            -84.6230572,
            34.6369871
          ],
          [
            -84.6232871,
            34.636881
          ],
          [
            -84.6235385,
            34.6368068
          ],
          [
            -84.623633,
            34.636683
          ],
          [
            -84.6236394,
            34.6365062
          ],
          [
            -84.6236523,
            34.6364585
          ]
        ]
      },
      "id": "way/288509220"
    },
    {
      "type": "Feature",
      "properties": {
        "@id": "way/288509222",
        "highway": "track"
      },
      "geometry": {
        "type": "LineString",
        "coordinates": [
          [
            -84.6208456,
            34.6384551
          ],
          [
            -84.6207756,
            34.6386613
          ],
          [
            -84.6206007,
            34.6388915
          ],
          [
            -84.6204608,
            34.6391985
          ],
          [
            -84.6203675,
            34.6394575
          ],
          [
            -84.6203209,
            34.6396686
          ],
          [
            -84.6203103,
            34.6397709
          ]
        ]
      },
      "id": "way/288509222"
    },
    {
      "type": "Feature",
      "properties": {
        "@id": "way/288509223",
        "highway": "track"
      },
      "geometry": {
        "type": "LineString",
        "coordinates": [
          [
            -84.6178551,
            34.6392217
          ],
          [
            -84.6190025,
            34.6387762
          ],
          [
            -84.6193334,
            34.6386347
          ],
          [
            -84.6195445,
            34.6385973
          ]
        ]
      },
      "id": "way/288509223"
    },
    {
      "type": "Feature",
      "properties": {
        "@id": "way/288509667",
        "highway": "track"
      },
      "geometry": {
        "type": "LineString",
        "coordinates": [
          [
            -84.6180636,
            34.6397202
          ],
          [
            -84.6183644,
            34.6395646
          ],
          [
            -84.6185943,
            34.6394585
          ],
          [
            -84.6188843,
            34.6393401
          ],
          [
            -84.619097,
            34.6392871
          ],
          [
            -84.6194344,
            34.6392676
          ],
          [
            -84.6195998,
            34.6392552
          ],
          [
            -84.6196944,
            34.6392552
          ],
          [
            -84.6198405,
            34.6392252
          ],
          [
            -84.6200204,
            34.6391811
          ]
        ]
      },
      "id": "way/288509667"
    },
    {
      "type": "Feature",
      "properties": {
        "@id": "way/288509669",
        "highway": "track"
      },
      "geometry": {
        "type": "LineString",
        "coordinates": [
          [
            -84.620357,
            34.6405296
          ],
          [
            -84.6204601,
            34.6403864
          ],
          [
            -84.6205289,
            34.6402963
          ],
          [
            -84.6205525,
            34.6401902
          ],
          [
            -84.6204838,
            34.6400505
          ],
          [
            -84.6204451,
            34.6399516
          ],
          [
            -84.6204408,
            34.6398914
          ],
          [
            -84.6204541,
            34.6398164
          ]
        ]
      },
      "id": "way/288509669"
    },
    {
      "type": "Feature",
      "properties": {
        "@id": "way/288510887",
        "highway": "track"
      },
      "geometry": {
        "type": "LineString",
        "coordinates": [
          [
            -84.6246954,
            34.6406305
          ],
          [
            -84.6242116,
            34.6407779
          ],
          [
            -84.6240658,
            34.6408223
          ],
          [
            -84.6237918,
            34.641019
          ],
          [
            -84.6234711,
            34.6412876
          ],
          [
            -84.6231682,
            34.6415317
          ]
        ]
      },
      "id": "way/288510887"
    },
    {
      "type": "Feature",
      "properties": {
        "@id": "way/288510889",
        "highway": "track"
      },
      "geometry": {
        "type": "LineString",
        "coordinates": [
          [
            -84.6255582,
            34.6371339
          ],
          [
            -84.6254766,
            34.6373929
          ],
          [
            -84.6253367,
            34.6377191
          ],
          [
            -84.6252375,
            34.6380932
          ],
          [
            -84.6251967,
            34.6384913
          ],
          [
            -84.6251384,
            34.6386688
          ],
          [
            -84.6251093,
            34.638923
          ],
          [
            -84.6251151,
            34.6393067
          ],
          [
            -84.6250335,
            34.6395993
          ],
          [
            -84.6247187,
            34.6399686
          ],
          [
            -84.6244039,
            34.6403475
          ],
          [
            -84.6242116,
            34.6407779
          ]
        ]
      },
      "id": "way/288510889"
    },
    {
      "type": "Feature",
      "properties": {
        "@id": "way/288510890",
        "highway": "track"
      },
      "geometry": {
        "type": "LineString",
        "coordinates": [
          [
            -84.6265376,
            34.6442228
          ],
          [
            -84.6258438,
            34.6443475
          ],
          [
            -84.625529,
            34.6444243
          ],
          [
            -84.62529,
            34.6445394
          ],
          [
            -84.6251268,
            34.6446929
          ],
          [
            -84.6249869,
            34.6449039
          ],
          [
            -84.624853,
            34.6449993
          ]
        ]
      },
      "id": "way/288510890"
    },
    {
      "type": "Feature",
      "properties": {
        "@id": "way/288510892",
        "highway": "track"
      },
      "geometry": {
        "type": "LineString",
        "coordinates": [
          [
            -84.6207223,
            34.6465814
          ],
          [
            -84.6206428,
            34.6466362
          ],
          [
            -84.6205891,
            34.6468182
          ],
          [
            -84.6205182,
            34.6471063
          ],
          [
            -84.620501,
            34.6472601
          ],
          [
            -84.620544,
            34.6473644
          ],
          [
            -84.6206149,
            34.647444
          ],
          [
            -84.6206407,
            34.64755
          ],
          [
            -84.6206128,
            34.6476419
          ],
          [
            -84.620501,
            34.6476844
          ],
          [
            -84.6201873,
            34.6477091
          ],
          [
            -84.6199531,
            34.6476861
          ],
          [
            -84.6198607,
            34.647679
          ],
          [
            -84.6197469,
            34.6475571
          ],
          [
            -84.619633,
            34.6474139
          ],
          [
            -84.6195277,
            34.6472937
          ],
          [
            -84.6194138,
            34.6472389
          ],
          [
            -84.6192763,
            34.6472389
          ],
          [
            -84.6191517,
            34.6472654
          ],
          [
            -84.6190507,
            34.6473132
          ],
          [
            -84.6189948,
            34.6474104
          ],
          [
            -84.6188423,
            34.6475447
          ],
          [
            -84.6186639,
            34.6476296
          ],
          [
            -84.6185995,
            34.6476755
          ],
          [
            -84.6186188,
            34.6477303
          ],
          [
            -84.6187585,
            34.6478152
          ],
          [
            -84.6188681,
            34.6479071
          ],
          [
            -84.6189325,
            34.6479919
          ],
          [
            -84.6189905,
            34.6481174
          ],
          [
            -84.6190142,
            34.6482959
          ],
          [
            -84.6189798,
            34.6483985
          ],
          [
            -84.6189067,
            34.6485558
          ],
          [
            -84.618853,
            34.6486724
          ],
          [
            -84.6188272,
            34.6487537
          ],
          [
            -84.6187692,
            34.6489022
          ],
          [
            -84.6188208,
            34.6490242
          ],
          [
            -84.6189347,
            34.6491568
          ],
          [
            -84.619113,
            34.6493247
          ],
          [
            -84.6192462,
            34.6494325
          ],
          [
            -84.6194074,
            34.6495262
          ],
          [
            -84.6195277,
            34.6495562
          ],
          [
            -84.6196695,
            34.6495403
          ],
          [
            -84.6198006,
            34.649505
          ],
          [
            -84.6199316,
            34.6493936
          ],
          [
            -84.6200971,
            34.6493105
          ],
          [
            -84.6202496,
            34.6492504
          ],
          [
            -84.6204387,
            34.6492239
          ],
          [
            -84.6206364,
            34.6492169
          ],
          [
            -84.6207911,
            34.6492805
          ],
          [
            -84.6209093,
            34.6493264
          ],
          [
            -84.6211134,
            34.6493282
          ],
          [
            -84.6212745,
            34.6492716
          ],
          [
            -84.6213755,
            34.6491762
          ],
          [
            -84.6214744,
            34.6490719
          ],
          [
            -84.6215753,
            34.648957
          ],
          [
            -84.6217172,
            34.6488739
          ],
          [
            -84.6218547,
            34.6488669
          ],
          [
            -84.6219664,
            34.6489164
          ],
          [
            -84.6220717,
            34.6489376
          ],
          [
            -84.622207,
            34.6489376
          ],
          [
            -84.6223145,
            34.6489305
          ],
          [
            -84.6224864,
            34.6489111
          ],
          [
            -84.6226067,
            34.6488881
          ],
          [
            -84.6227571,
            34.6488386
          ],
          [
            -84.6228817,
            34.6487891
          ],
          [
            -84.62303,
            34.6487184
          ],
          [
            -84.6231933,
            34.6486106
          ],
          [
            -84.6233652,
            34.6484904
          ],
          [
            -84.6236746,
            34.6482853
          ],
          [
            -84.6238035,
            34.6482005
          ],
          [
            -84.6239066,
            34.648105
          ],
          [
            -84.6240033,
            34.6479937
          ],
          [
            -84.6241365,
            34.6479071
          ],
          [
            -84.6242418,
            34.647877
          ],
          [
            -84.62427,
            34.6478282
          ]
        ]
      },
      "id": "way/288510892"
    },
    {
      "type": "Feature",
      "properties": {
        "@id": "way/288511367",
        "highway": "track"
      },
      "geometry": {
        "type": "LineString",
        "coordinates": [
          [
            -84.6179852,
            34.6426192
          ],
          [
            -84.6179619,
            34.6429789
          ],
          [
            -84.6179036,
            34.6434873
          ],
          [
            -84.6179036,
            34.6437127
          ],
          [
            -84.6180202,
            34.6438374
          ],
          [
            -84.6182067,
            34.6439189
          ],
          [
            -84.6183933,
            34.6439669
          ],
          [
            -84.6187897,
            34.6438662
          ],
          [
            -84.6190223,
            34.6437531
          ],
          [
            -84.6190932,
            34.6436612
          ],
          [
            -84.6191619,
            34.6435728
          ],
          [
            -84.6192973,
            34.6434968
          ],
          [
            -84.6195895,
            34.6433642
          ],
          [
            -84.6199178,
            34.6432578
          ]
        ]
      },
      "id": "way/288511367"
    },
    {
      "type": "Feature",
      "properties": {
        "@id": "way/288513143",
        "highway": "track"
      },
      "geometry": {
        "type": "LineString",
        "coordinates": [
          [
            -84.6185995,
            34.6476755
          ],
          [
            -84.618456,
            34.647568
          ],
          [
            -84.6181745,
            34.6473382
          ],
          [
            -84.6176202,
            34.6469599
          ],
          [
            -84.6173967,
            34.6468468
          ],
          [
            -84.6171969,
            34.6467902
          ],
          [
            -84.6169734,
            34.6467213
          ],
          [
            -84.6168273,
            34.6466647
          ],
          [
            -84.6166791,
            34.6466736
          ],
          [
            -84.6164707,
            34.6466877
          ],
          [
            -84.6162687,
            34.6466577
          ],
          [
            -84.6160796,
            34.6466241
          ],
          [
            -84.6159314,
            34.6466258
          ],
          [
            -84.6157638,
            34.6466364
          ],
          [
            -84.615637,
            34.6466364
          ],
          [
            -84.6155596,
            34.6466135
          ],
          [
            -84.6154995,
            34.6465746
          ],
          [
            -84.6154135,
            34.6464897
          ],
          [
            -84.6153942,
            34.6463907
          ],
          [
            -84.6153641,
            34.6462582
          ],
          [
            -84.6152416,
            34.6459365
          ],
          [
            -84.6151729,
            34.6457862
          ],
          [
            -84.6150246,
            34.6456395
          ],
          [
            -84.6148334,
            34.6455387
          ],
          [
            -84.6145648,
            34.645468
          ],
          [
            -84.6142748,
            34.6454221
          ],
          [
            -84.6140341,
            34.6453461
          ],
          [
            -84.61383,
            34.6452612
          ],
          [
            -84.6137376,
            34.6451817
          ],
          [
            -84.6136345,
            34.6450862
          ]
        ]
      },
      "id": "way/288513143"
    },
    {
      "type": "Feature",
      "properties": {
        "@id": "way/288513144",
        "highway": "path"
      },
      "geometry": {
        "type": "LineString",
        "coordinates": [
          [
            -84.6133137,
            34.6460306
          ],
          [
            -84.6134478,
            34.645858
          ],
          [
            -84.6135352,
            34.6454167
          ],
          [
            -84.6136345,
            34.6450862
          ],
          [
            -84.6136343,
            34.6447453
          ],
          [
            -84.6136169,
            34.6440738
          ],
          [
            -84.6135994,
            34.6438292
          ],
          [
            -84.6135527,
            34.6436374
          ],
          [
            -84.6135644,
            34.6434168
          ],
          [
            -84.6137859,
            34.6431482
          ],
          [
            -84.6139666,
            34.6428268
          ],
          [
            -84.6140599,
            34.6425535
          ],
          [
            -84.6141707,
            34.6423712
          ]
        ]
      },
      "id": "way/288513144"
    },
    {
      "type": "Feature",
      "properties": {
        "@id": "way/288515242",
        "highway": "track"
      },
      "geometry": {
        "type": "LineString",
        "coordinates": [
          [
            -84.6260445,
            34.6551747
          ],
          [
            -84.6260113,
            34.6553147
          ],
          [
            -84.6259941,
            34.6554862
          ],
          [
            -84.6259834,
            34.6558096
          ],
          [
            -84.6260113,
            34.6560482
          ],
          [
            -84.6260264,
            34.6561596
          ],
          [
            -84.6260135,
            34.6562904
          ],
          [
            -84.6260113,
            34.6563717
          ],
          [
            -84.625992,
            34.6564335
          ],
          [
            -84.6259189,
            34.6564954
          ],
          [
            -84.6258781,
            34.6565148
          ],
          [
            -84.625833,
            34.6565183
          ],
          [
            -84.6257793,
            34.6564971
          ],
          [
            -84.6257427,
            34.6564547
          ],
          [
            -84.6256611,
            34.6564105
          ],
          [
            -84.6255837,
            34.6563699
          ],
          [
            -84.6253689,
            34.6563717
          ],
          [
            -84.6251798,
            34.6564105
          ],
          [
            -84.6249864,
            34.6564724
          ],
          [
            -84.6248725,
            34.6564883
          ]
        ]
      },
      "id": "way/288515242"
    },
    {
      "type": "Feature",
      "properties": {
        "@id": "way/652443872",
        "foot": "designated",
        "highway": "footway",
        "name": "Tumbling Waters Nature Trail",
        "operator": "US Army Corps of Engineers",
        "surface": "dirt"
      },
      "geometry": {
        "type": "LineString",
        "coordinates": [
          [
            -84.6071472,
            34.6544759
          ],
          [
            -84.6074533,
            34.6541341
          ],
          [
            -84.6074344,
            34.6539599
          ],
          [
            -84.6075228,
            34.6538933
          ],
          [
            -84.6077549,
            34.6537907
          ],
          [
            -84.6080742,
            34.6537264
          ],
          [
            -84.6082141,
            34.6537157
          ],
          [
            -84.6083026,
            34.6536628
          ],
          [
            -84.6085105,
            34.6534027
          ],
          [
            -84.608635,
            34.6530047
          ],
          [
            -84.6086334,
            34.6528952
          ],
          [
            -84.6085782,
            34.6527262
          ],
          [
            -84.6084732,
            34.6525409
          ],
          [
            -84.6083589,
            34.6524824
          ],
          [
            -84.6082418,
            34.6523032
          ],
          [
            -84.6082113,
            34.6521531
          ],
          [
            -84.6081595,
            34.6519961
          ],
          [
            -84.6080493,
            34.6518431
          ],
          [
            -84.6080031,
            34.651757
          ],
          [
            -84.608032,
            34.6516511
          ],
          [
            -84.6080998,
            34.6515486
          ],
          [
            -84.6082792,
            34.6513919
          ],
          [
            -84.6083974,
            34.651267
          ],
          [
            -84.6085081,
            34.6508877
          ],
          [
            -84.6085624,
            34.6508017
          ],
          [
            -84.6085849,
            34.6506554
          ],
          [
            -84.6085612,
            34.6505524
          ],
          [
            -84.6085804,
            34.6504891
          ],
          [
            -84.6086215,
            34.6504618
          ],
          [
            -84.6088085,
            34.6504661
          ],
          [
            -84.6089557,
            34.650399
          ],
          [
            -84.6090398,
            34.6502967
          ]
        ]
      },
      "id": "way/652443872"
    },
    {
      "type": "Feature",
      "properties": {
        "@id": "way/1185085049",
        "foot": "designated",
        "highway": "footway",
        "name": "Tumbling Waters Nature Trail",
        "operator": "US Army Corps of Engineers",
        "surface": "dirt"
      },
      "geometry": {
        "type": "LineString",
        "coordinates": [
          [
            -84.6081276,
            34.6543923
          ],
          [
            -84.6082666,
            34.6543815
          ],
          [
            -84.6083293,
            34.6544487
          ],
          [
            -84.6082681,
            34.6546168
          ],
          [
            -84.6081032,
            34.6547562
          ],
          [
            -84.6079492,
            34.6548988
          ],
          [
            -84.6076673,
            34.655011
          ],
          [
            -84.6075032,
            34.6551662
          ],
          [
            -84.6073641,
            34.6553529
          ]
        ]
      },
      "id": "way/1185085049"
    },
    {
      "type": "Feature",
      "properties": {
        "@id": "way/1185085050",
        "foot": "designated",
        "highway": "footway",
        "name": "Tumbling Waters Nature Trail",
        "operator": "US Army Corps of Engineers",
        "surface": "dirt"
      },
      "geometry": {
        "type": "LineString",
        "coordinates": [
          [
            -84.6071472,
            34.6544759
          ],
          [
            -84.6074089,
            34.6544231
          ],
          [
            -84.6076385,
            34.6543137
          ]
        ]
      },
      "id": "way/1185085050"
    },
    {
      "type": "Feature",
      "properties": {
        "@id": "way/1185085051",
        "bridge": "yes",
        "foot": "designated",
        "highway": "footway",
        "layer": "1",
        "name": "Tumbling Waters Nature Trail",
        "operator": "US Army Corps of Engineers",
        "surface": "wood"
      },
      "geometry": {
        "type": "LineString",
        "coordinates": [
          [
            -84.6076385,
            34.6543137
          ],
          [
            -84.6081276,
            34.6543923
          ]
        ]
      },
      "id": "way/1185085051"
    },
    {
      "type": "Feature",
      "properties": {
        "@id": "way/1185085052",
        "foot": "designated",
        "highway": "footway",
        "name": "Tumbling Waters Nature Trail",
        "operator": "US Army Corps of Engineers",
        "surface": "dirt"
      },
      "geometry": {
        "type": "LineString",
        "coordinates": [
          [
            -84.6070693,
            34.6550409
          ],
          [
            -84.6070157,
            34.6548044
          ],
          [
            -84.6070256,
            34.6546468
          ],
          [
            -84.6071472,
            34.6544759
          ]
        ]
      },
      "id": "way/1185085052"
    },
    {
      "type": "Feature",
      "properties": {
        "@id": "way/1191912694",
        "foot": "designated",
        "highway": "footway",
        "name": "Tumbling Waters Nature Trail",
        "operator": "US Army Corps of Engineers",
        "surface": "dirt"
      },
      "geometry": {
        "type": "LineString",
        "coordinates": [
          [
            -84.6076385,
            34.6543137
          ],
          [
            -84.6074533,
            34.6541341
          ]
        ]
      },
      "id": "way/1191912694"
    },
    {
      "type": "Feature",
      "properties": {
        "@id": "way/1318541057",
        "highway": "path",
        "source": "Strava Global Heatmap"
      },
      "geometry": {
        "type": "LineString",
        "coordinates": [
          [
            -84.6029818,
            34.6530587
          ],
          [
            -84.6030394,
            34.6531332
          ],
          [
            -84.6030421,
            34.653248
          ],
          [
            -84.6030341,
            34.6534068
          ],
          [
            -84.6030341,
            34.653451
          ],
          [
            -84.6031011,
            34.6535436
          ],
          [
            -84.6031521,
            34.6536208
          ],
          [
            -84.6032004,
            34.6537378
          ],
          [
            -84.6032513,
            34.6538702
          ],
          [
            -84.6032782,
            34.6539584
          ],
          [
            -84.6033157,
            34.6540246
          ],
          [
            -84.6033559,
            34.6540445
          ]
        ]
      },
      "id": "way/1318541057"
    },
    {
      "type": "Feature",
      "properties": {
        "@id": "way/1318541058",
        "highway": "path",
        "source": "Strava Global Heatmap"
      },
      "geometry": {
        "type": "LineString",
        "coordinates": [
          [
            -84.6033559,
            34.6540445
          ],
          [
            -84.6034418,
            34.6541658
          ],
          [
            -84.6035035,
            34.6542563
          ],
          [
            -84.6036537,
            34.6543357
          ],
          [
            -84.6038387,
            34.6543335
          ],
          [
            -84.6041391,
            34.6543313
          ],
          [
            -84.6041955,
            34.6543401
          ],
          [
            -84.6042464,
            34.6543269
          ],
          [
            -84.6044047,
            34.6541702
          ],
          [
            -84.6045737,
            34.6539937
          ],
          [
            -84.604689,
            34.6537863
          ],
          [
            -84.6048124,
            34.6536716
          ],
          [
            -84.6049867,
            34.653537
          ],
          [
            -84.6051557,
            34.6534642
          ],
          [
            -84.6052952,
            34.6534134
          ],
          [
            -84.6053569,
            34.6533826
          ],
          [
            -84.6054025,
            34.653334
          ],
          [
            -84.6054561,
            34.6532634
          ],
          [
            -84.6055232,
            34.6532303
          ],
          [
            -84.6056009,
            34.653206
          ],
          [
            -84.605727,
            34.6531729
          ],
          [
            -84.6058048,
            34.6531641
          ],
          [
            -84.6058584,
            34.6531443
          ],
          [
            -84.6059228,
            34.6531156
          ],
          [
            -84.6059362,
            34.6530869
          ],
          [
            -84.6058879,
            34.6530406
          ],
          [
            -84.6058692,
            34.6530097
          ],
          [
            -84.6058879,
            34.6529788
          ],
          [
            -84.6059389,
            34.6529501
          ],
          [
            -84.6060086,
            34.652928
          ],
          [
            -84.6060596,
            34.6528927
          ],
          [
            -84.6061907,
            34.6527816
          ],
          [
            -84.6063181,
            34.6526971
          ],
          [
            -84.6064774,
            34.6526505
          ],
          [
            -84.6065942,
            34.6526272
          ],
          [
            -84.606718,
            34.6526651
          ],
          [
            -84.6068915,
            34.6527612
          ],
          [
            -84.6069446,
            34.6529242
          ],
          [
            -84.607033,
            34.6530931
          ],
          [
            -84.6070401,
            34.6531717
          ],
          [
            -84.6070224,
            34.6532415
          ],
          [
            -84.6069446,
            34.6533493
          ],
          [
            -84.6069339,
            34.65339
          ],
          [
            -84.6069799,
            34.6534104
          ],
          [
            -84.6071675,
            34.6534337
          ],
          [
            -84.6073303,
            34.6534104
          ],
          [
            -84.6074365,
            34.6533464
          ],
          [
            -84.6074365,
            34.6533114
          ],
          [
            -84.6074259,
            34.6532474
          ],
          [
            -84.6074153,
            34.653128
          ],
          [
            -84.60744,
            34.6530727
          ],
          [
            -84.6075462,
            34.6530057
          ],
          [
            -84.6076099,
            34.6529329
          ],
          [
            -84.607617,
            34.6528398
          ],
          [
            -84.6076028,
            34.6525923
          ],
          [
            -84.6076135,
            34.6524671
          ],
          [
            -84.6075533,
            34.6523448
          ],
          [
            -84.6075002,
            34.6522662
          ],
          [
            -84.6074648,
            34.6522313
          ],
          [
            -84.6074861,
            34.6521672
          ],
          [
            -84.607663,
            34.6519722
          ],
          [
            -84.6077267,
            34.6518703
          ],
          [
            -84.6078081,
            34.6517072
          ],
          [
            -84.607967,
            34.6515085
          ],
          [
            -84.6080662,
            34.6514092
          ],
          [
            -84.6081933,
            34.651281
          ],
          [
            -84.6082888,
            34.6512024
          ],
          [
            -84.6083242,
            34.6511354
          ],
          [
            -84.6083986,
            34.6509578
          ],
          [
            -84.6084092,
            34.650821
          ],
          [
            -84.6083534,
            34.6505568
          ]
        ]
      },
      "id": "way/1318541058"
    },
    {
      "type": "Feature",
      "properties": {
        "@id": "way/1318541059",
        "highway": "path",
        "source": "Strava Global Heatmap"
      },
      "geometry": {
        "type": "LineString",
        "coordinates": [
          [
            -84.6033559,
            34.6540445
          ],
          [
            -84.6034488,
            34.6540013
          ],
          [
            -84.6035586,
            34.6539168
          ],
          [
            -84.60368,
            34.6538035
          ],
          [
            -84.6037617,
            34.6536537
          ],
          [
            -84.6038107,
            34.6535749
          ],
          [
            -84.6038318,
            34.6535115
          ],
          [
            -84.6038248,
            34.6534674
          ],
          [
            -84.6037967,
            34.6534251
          ],
          [
            -84.6037282,
            34.6533666
          ],
          [
            -84.6036265,
            34.6532931
          ],
          [
            -84.6035926,
            34.6532526
          ],
          [
            -84.6035834,
            34.6532158
          ],
          [
            -84.6036003,
            34.6531816
          ],
          [
            -84.6036388,
            34.6531639
          ],
          [
            -84.6037344,
            34.6531461
          ],
          [
            -84.6038314,
            34.6531297
          ],
          [
            -84.60395,
            34.653079
          ],
          [
            -84.6039839,
            34.6530587
          ],
          [
            -84.6040054,
            34.6530315
          ],
          [
            -84.6040872,
            34.6529451
          ],
          [
            -84.6041665,
            34.652898
          ],
          [
            -84.6042319,
            34.652874
          ],
          [
            -84.6042999,
            34.6528107
          ],
          [
            -84.6043335,
            34.6527423
          ],
          [
            -84.6043565,
            34.6526841
          ],
          [
            -84.60436,
            34.6526026
          ],
          [
            -84.604353,
            34.6524701
          ],
          [
            -84.6043519,
            34.6524013
          ],
          [
            -84.604356,
            34.6523771
          ],
          [
            -84.6043743,
            34.6523653
          ],
          [
            -84.6044068,
            34.652372
          ],
          [
            -84.6044627,
            34.6523929
          ],
          [
            -84.6045288,
            34.6524347
          ],
          [
            -84.6046131,
            34.6525058
          ],
          [
            -84.6046833,
            34.6525434
          ],
          [
            -84.6047605,
            34.6525593
          ],
          [
            -84.6048276,
            34.6525618
          ],
          [
            -84.6048997,
            34.6525426
          ],
          [
            -84.6049689,
            34.6524983
          ],
          [
            -84.605027,
            34.6524608
          ],
          [
            -84.6051474,
            34.6523749
          ],
          [
            -84.6052181,
            34.652305
          ],
          [
            -84.6052429,
            34.6522657
          ],
          [
            -84.6052447,
            34.6522031
          ],
          [
            -84.605248,
            34.6521522
          ],
          [
            -84.605268,
            34.6521091
          ],
          [
            -84.6053081,
            34.6520774
          ],
          [
            -84.6053589,
            34.6520635
          ],
          [
            -84.6054406,
            34.6520381
          ],
          [
            -84.6054991,
            34.6520001
          ],
          [
            -84.6055407,
            34.6519545
          ],
          [
            -84.6055515,
            34.6519101
          ],
          [
            -84.6055376,
            34.6518721
          ],
          [
            -84.6054421,
            34.6516643
          ],
          [
            -84.6053286,
            34.6514947
          ],
          [
            -84.6052455,
            34.6513959
          ],
          [
            -84.6051561,
            34.6513173
          ],
          [
            -84.6050267,
            34.6510917
          ],
          [
            -84.6051407,
            34.6509422
          ],
          [
            -84.6052054,
            34.6509194
          ],
          [
            -84.6054396,
            34.6509168
          ],
          [
            -84.6055782,
            34.6509067
          ],
          [
            -84.6056737,
            34.650889
          ],
          [
            -84.6058432,
            34.6508307
          ],
          [
            -84.606025,
            34.6507977
          ],
          [
            -84.6061205,
            34.6507749
          ],
          [
            -84.6062596,
            34.6506713
          ],
          [
            -84.6063127,
            34.650616
          ],
          [
            -84.6065286,
            34.650549
          ],
          [
            -84.606617,
            34.6505374
          ],
          [
            -84.6067303,
            34.6505607
          ],
          [
            -84.6068613,
            34.6506364
          ],
          [
            -84.6069179,
            34.6506975
          ],
          [
            -84.6069214,
            34.6507703
          ],
          [
            -84.6068896,
            34.6508431
          ],
          [
            -84.6068082,
            34.6508839
          ],
          [
            -84.6065533,
            34.6509421
          ],
          [
            -84.6064684,
            34.6509421
          ],
          [
            -84.6063127,
            34.6509421
          ],
          [
            -84.6060862,
            34.6509683
          ],
          [
            -84.6058667,
            34.6510411
          ],
          [
            -84.6058066,
            34.6510789
          ],
          [
            -84.605803,
            34.6511139
          ],
          [
            -84.6058278,
            34.6511313
          ],
          [
            -84.6058844,
            34.6511372
          ],
          [
            -84.6059446,
            34.6511313
          ],
          [
            -84.6060614,
            34.651108
          ],
          [
            -84.6064436,
            34.6511051
          ],
          [
            -84.6065817,
            34.6511139
          ],
          [
            -84.6068082,
            34.6511022
          ],
          [
            -84.6069002,
            34.6510847
          ],
          [
            -84.6070382,
            34.6510294
          ],
          [
            -84.6071975,
            34.6509246
          ],
          [
            -84.6073284,
            34.6508198
          ],
          [
            -84.6073567,
            34.6507499
          ],
          [
            -84.6073461,
            34.6506946
          ],
          [
            -84.6072399,
            34.6505636
          ],
          [
            -84.6070913,
            34.6504238
          ],
          [
            -84.6069364,
            34.6503416
          ],
          [
            -84.6068131,
            34.6503063
          ],
          [
            -84.6066414,
            34.6502776
          ],
          [
            -84.6065207,
            34.6502865
          ],
          [
            -84.6064429,
            34.6503306
          ],
          [
            -84.6063651,
            34.6504277
          ],
          [
            -84.6063142,
            34.6504608
          ],
          [
            -84.6062471,
            34.6504586
          ],
          [
            -84.6061345,
            34.6504608
          ],
          [
            -84.6060191,
            34.6505225
          ],
          [
            -84.6058957,
            34.6506152
          ],
          [
            -84.6057804,
            34.6506307
          ],
          [
            -84.6056838,
            34.6506638
          ],
          [
            -84.605649,
            34.6506616
          ],
          [
            -84.6056222,
            34.6506549
          ],
          [
            -84.6056007,
            34.6506395
          ],
          [
            -84.60559,
            34.6504784
          ],
          [
            -84.6055819,
            34.6504034
          ],
          [
            -84.605547,
            34.6503416
          ],
          [
            -84.6055497,
            34.6502754
          ],
          [
            -84.6055585,
            34.6501847
          ],
          [
            -84.6055443,
            34.6500994
          ],
          [
            -84.6054915,
            34.6500342
          ],
          [
            -84.6054224,
            34.6499974
          ],
          [
            -84.6053329,
            34.6499539
          ],
          [
            -84.6052862,
            34.6499172
          ],
          [
            -84.6052923,
            34.6498218
          ],
          [
            -84.6053085,
            34.6497432
          ],
          [
            -84.6053512,
            34.6496814
          ],
          [
            -84.6053776,
            34.6496145
          ],
          [
            -84.6053848,
            34.649545
          ]
        ]
      },
      "id": "way/1318541059"
    },
    {
      "type": "Feature",
      "properties": {
        "@id": "way/1318541060",
        "highway": "path",
        "source": "Strava Global Heatmap"
      },
      "geometry": {
        "type": "LineString",
        "coordinates": [
          [
            -84.6035035,
            34.6542563
          ],
          [
            -84.6036216,
            34.6541857
          ],
          [
            -84.6037243,
            34.6540916
          ],
          [
            -84.6037921,
            34.6540052
          ],
          [
            -84.6038761,
            34.6538496
          ],
          [
            -84.6039555,
            34.6537343
          ],
          [
            -84.6040022,
            34.6536806
          ],
          [
            -84.6040326,
            34.6536518
          ],
          [
            -84.6040816,
            34.653621
          ],
          [
            -84.6041423,
            34.6535557
          ],
          [
            -84.6041843,
            34.6534942
          ],
          [
            -84.604203,
            34.6534347
          ],
          [
            -84.604217,
            34.6533617
          ],
          [
            -84.6041727,
            34.6532695
          ],
          [
            -84.6041564,
            34.6532064
          ],
          [
            -84.6041546,
            34.6531394
          ],
          [
            -84.6041759,
            34.6530943
          ],
          [
            -84.6042148,
            34.653055
          ],
          [
            -84.6042626,
            34.6530332
          ],
          [
            -84.6043882,
            34.6530084
          ],
          [
            -84.6044962,
            34.6529778
          ],
          [
            -84.6045545,
            34.6529458
          ],
          [
            -84.6046023,
            34.6528949
          ],
          [
            -84.6046342,
            34.6528352
          ],
          [
            -84.6046395,
            34.6527799
          ],
          [
            -84.6046837,
            34.6527391
          ],
          [
            -84.6047315,
            34.6527056
          ],
          [
            -84.6048412,
            34.6526896
          ],
          [
            -84.604958,
            34.652678
          ],
          [
            -84.6051615,
            34.6526154
          ],
          [
            -84.6053686,
            34.6525499
          ],
          [
            -84.6054712,
            34.6525339
          ],
          [
            -84.6055438,
            34.6525062
          ],
          [
            -84.605657,
            34.6524276
          ],
          [
            -84.6057614,
            34.6523344
          ],
          [
            -84.6058853,
            34.652282
          ],
          [
            -84.6059525,
            34.6522456
          ],
          [
            -84.6060074,
            34.6521932
          ],
          [
            -84.6060941,
            34.6520433
          ],
          [
            -84.60614,
            34.651998
          ],
          [
            -84.606267,
            34.6519463
          ],
          [
            -84.6063224,
            34.6518969
          ],
          [
            -84.6063578,
            34.6518475
          ],
          [
            -84.6063686,
            34.6517829
          ],
          [
            -84.6063609,
            34.6517524
          ],
          [
            -84.6062931,
            34.6516954
          ],
          [
            -84.6062423,
            34.6516777
          ],
          [
            -84.6061314,
            34.6516422
          ],
          [
            -84.6060713,
            34.6516371
          ],
          [
            -84.606022,
            34.6516244
          ],
          [
            -84.6060066,
            34.651589
          ],
          [
            -84.6060205,
            34.6515535
          ],
          [
            -84.6060605,
            34.651537
          ],
          [
            -84.6063733,
            34.6514825
          ],
          [
            -84.6066304,
            34.6514324
          ],
          [
            -84.607073,
            34.6514038
          ],
          [
            -84.6072849,
            34.651353
          ],
          [
            -84.6075826,
            34.6512339
          ],
          [
            -84.6079259,
            34.6511765
          ],
          [
            -84.6081056,
            34.6511655
          ],
          [
            -84.6082156,
            34.651075
          ],
          [
            -84.6082907,
            34.6509845
          ],
          [
            -84.6083149,
            34.6508521
          ],
          [
            -84.6083229,
            34.6506536
          ],
          [
            -84.6083534,
            34.6505568
          ]
        ]
      },
      "id": "way/1318541060"
    },
    {
      "type": "Feature",
      "properties": {
        "@id": "way/1318541061",
        "highway": "path",
        "source": "Strava Global Heatmap"
      },
      "geometry": {
        "type": "LineString",
        "coordinates": [
          [
            -84.6029818,
            34.6530587
          ],
          [
            -84.6028768,
            34.653049
          ],
          [
            -84.6027467,
            34.6530534
          ],
          [
            -84.6027092,
            34.6530656
          ],
          [
            -84.6026019,
            34.6531417
          ],
          [
            -84.6025026,
            34.6532355
          ],
          [
            -84.6024745,
            34.6532553
          ],
          [
            -84.6024356,
            34.6532498
          ],
          [
            -84.6024101,
            34.6532366
          ],
          [
            -84.6023994,
            34.6531483
          ],
          [
            -84.602394,
            34.6529696
          ]
        ]
      },
      "id": "way/1318541061"
    },
    {
      "type": "Feature",
      "properties": {
        "@id": "way/1318541062",
        "highway": "path",
        "source": "Strava Global Heatmap"
      },
      "geometry": {
        "type": "LineString",
        "coordinates": [
          [
            -84.602394,
            34.6529696
          ],
          [
            -84.6023298,
            34.6529705
          ],
          [
            -84.6022636,
            34.6530148
          ],
          [
            -84.6022035,
            34.6530845
          ],
          [
            -84.6021711,
            34.6531035
          ],
          [
            -84.6021342,
            34.6531111
          ],
          [
            -84.6020941,
            34.6531061
          ],
          [
            -84.6020402,
            34.653063
          ],
          [
            -84.6019878,
            34.6530262
          ],
          [
            -84.6019216,
            34.6529958
          ],
          [
            -84.6018523,
            34.6529743
          ],
          [
            -84.6017922,
            34.6529692
          ],
          [
            -84.6017121,
            34.6529438
          ],
          [
            -84.6015682,
            34.6528981
          ],
          [
            -84.6014958,
            34.652875
          ],
          [
            -84.6014713,
            34.6528566
          ],
          [
            -84.6014421,
            34.6528347
          ],
          [
            -84.6014211,
            34.6528039
          ],
          [
            -84.6014211,
            34.652754
          ],
          [
            -84.6014444,
            34.6527041
          ],
          [
            -84.6014585,
            34.6526599
          ],
          [
            -84.6014585,
            34.6526176
          ],
          [
            -84.6014421,
            34.6525754
          ],
          [
            -84.6014188,
            34.6525523
          ],
          [
            -84.6013534,
            34.6525312
          ],
          [
            -84.6012997,
            34.6524966
          ],
          [
            -84.6011712,
            34.6524044
          ],
          [
            -84.6011017,
            34.6523563
          ],
          [
            -84.6010469,
            34.6523316
          ],
          [
            -84.6009566,
            34.6523228
          ],
          [
            -84.6008275,
            34.6523345
          ],
          [
            -84.6007266,
            34.6523578
          ],
          [
            -84.6006027,
            34.6523912
          ],
          [
            -84.6005532,
            34.6523927
          ],
          [
            -84.6005107,
            34.6523738
          ],
          [
            -84.6004806,
            34.6523316
          ],
          [
            -84.6004735,
            34.6521656
          ],
          [
            -84.6004541,
            34.6520593
          ],
          [
            -84.6004434,
            34.6519371
          ],
          [
            -84.6004381,
            34.6517668
          ],
          [
            -84.6004275,
            34.6516809
          ],
          [
            -84.6003886,
            34.6516154
          ],
          [
            -84.600309,
            34.6515324
          ],
          [
            -84.600247,
            34.6515149
          ],
          [
            -84.6001709,
            34.6514858
          ],
          [
            -84.6000966,
            34.6514378
          ],
          [
            -84.6000276,
            34.6513621
          ],
          [
            -84.599955,
            34.6513155
          ],
          [
            -84.5998329,
            34.6512514
          ],
          [
            -84.599725,
            34.6511568
          ],
          [
            -84.599587,
            34.6510666
          ],
          [
            -84.599541,
            34.6510127
          ],
          [
            -84.5995374,
            34.6509486
          ],
          [
            -84.5995586,
            34.6508977
          ],
          [
            -84.599575,
            34.6508922
          ],
          [
            -84.5996115,
            34.6508749
          ]
        ]
      },
      "id": "way/1318541062"
    },
    {
      "type": "Feature",
      "properties": {
        "@id": "way/1318541063",
        "highway": "path",
        "source": "Strava Global Heatmap"
      },
      "geometry": {
        "type": "LineString",
        "coordinates": [
          [
            -84.602394,
            34.6529696
          ],
          [
            -84.6024638,
            34.6528894
          ],
          [
            -84.6025239,
            34.652845
          ],
          [
            -84.6025671,
            34.6528247
          ],
          [
            -84.6026287,
            34.6528146
          ],
          [
            -84.6027011,
            34.652807
          ],
          [
            -84.6027673,
            34.6527981
          ],
          [
            -84.6028212,
            34.6527677
          ],
          [
            -84.6028536,
            34.6527145
          ],
          [
            -84.6028521,
            34.6526575
          ],
          [
            -84.6028413,
            34.652603
          ],
          [
            -84.6027935,
            34.6525168
          ],
          [
            -84.6027396,
            34.652442
          ],
          [
            -84.6026725,
            34.6523415
          ],
          [
            -84.6026263,
            34.6522591
          ],
          [
            -84.6026001,
            34.6521235
          ],
          [
            -84.602617,
            34.6519892
          ],
          [
            -84.6026617,
            34.6518814
          ],
          [
            -84.602728,
            34.6517991
          ],
          [
            -84.6028111,
            34.6517763
          ],
          [
            -84.6028728,
            34.6517813
          ],
          [
            -84.6029236,
            34.6518067
          ],
          [
            -84.6029791,
            34.6518536
          ],
          [
            -84.6030207,
            34.6518814
          ],
          [
            -84.6030777,
            34.6518916
          ],
          [
            -84.6031285,
            34.6518662
          ],
          [
            -84.6031501,
            34.6518295
          ],
          [
            -84.6031855,
            34.6517002
          ],
          [
            -84.6032317,
            34.6515355
          ],
          [
            -84.6033118,
            34.6513352
          ],
          [
            -84.6034058,
            34.6511464
          ],
          [
            -84.6034674,
            34.6510577
          ],
          [
            -84.6035492,
            34.6510089
          ],
          [
            -84.6036239,
            34.6510012
          ],
          [
            -84.603708,
            34.6510146
          ],
          [
            -84.6038061,
            34.6510742
          ],
          [
            -84.6039508,
            34.6512298
          ],
          [
            -84.6040186,
            34.6513316
          ],
          [
            -84.6040723,
            34.6513681
          ],
          [
            -84.6041727,
            34.6513777
          ],
          [
            -84.6043338,
            34.6513719
          ],
          [
            -84.6043875,
            34.6513316
          ],
          [
            -84.6044202,
            34.6512663
          ],
          [
            -84.6044295,
            34.6511952
          ],
          [
            -84.6044038,
            34.6510854
          ],
          [
            -84.6043956,
            34.6510185
          ],
          [
            -84.6044119,
            34.6509282
          ],
          [
            -84.6044587,
            34.650781
          ],
          [
            -84.6044993,
            34.6506473
          ],
          [
            -84.6045278,
            34.6505536
          ],
          [
            -84.6045339,
            34.6505101
          ],
          [
            -84.6045176,
            34.6504851
          ],
          [
            -84.604479,
            34.6505051
          ],
          [
            -84.6044017,
            34.6505854
          ],
          [
            -84.6043834,
            34.6506657
          ],
          [
            -84.604355,
            34.6507961
          ],
          [
            -84.6043225,
            34.6509332
          ],
          [
            -84.6043143,
            34.6510101
          ],
          [
            -84.6043103,
            34.6510687
          ],
          [
            -84.6043042,
            34.6511021
          ],
          [
            -84.6042838,
            34.6511355
          ],
          [
            -84.6042432,
            34.6511523
          ],
          [
            -84.6042005,
            34.6511556
          ],
          [
            -84.6041456,
            34.6511289
          ],
          [
            -84.6040867,
            34.6510603
          ],
          [
            -84.6040379,
            34.6509784
          ],
          [
            -84.6039627,
            34.650878
          ],
          [
            -84.6039118,
            34.6507961
          ],
          [
            -84.6038997,
            34.6507142
          ],
          [
            -84.6039139,
            34.6505921
          ],
          [
            -84.6039586,
            34.6504165
          ],
          [
            -84.6040236,
            34.6502693
          ],
          [
            -84.6040379,
            34.6502008
          ],
          [
            -84.6040562,
            34.6500486
          ],
          [
            -84.6040806,
            34.6499667
          ],
          [
            -84.6041639,
            34.6498045
          ],
          [
            -84.6042391,
            34.6495804
          ],
          [
            -84.6042757,
            34.6494851
          ],
          [
            -84.6043062,
            34.6494383
          ],
          [
            -84.6043509,
            34.6493948
          ],
          [
            -84.6043898,
            34.649343
          ],
          [
            -84.6044236,
            34.6492644
          ],
          [
            -84.6044298,
            34.6492061
          ],
          [
            -84.6044175,
            34.6490844
          ],
          [
            -84.6044267,
            34.6490338
          ],
          [
            -84.6044545,
            34.6490033
          ],
          [
            -84.6045038,
            34.6489755
          ],
          [
            -84.6046178,
            34.6489298
          ],
          [
            -84.6046693,
            34.6489135
          ],
          [
            -84.6047755,
            34.6488378
          ],
          [
            -84.6048852,
            34.6487126
          ],
          [
            -84.6049878,
            34.6486077
          ],
          [
            -84.6051436,
            34.6485029
          ],
          [
            -84.6052958,
            34.648436
          ],
          [
            -84.6054196,
            34.6483341
          ],
          [
            -84.6054904,
            34.648302
          ],
          [
            -84.6056037,
            34.6482855
          ],
          [
            -84.6057351,
            34.6482766
          ],
          [
            -84.6058665,
            34.6482546
          ],
          [
            -84.6060704,
            34.648195
          ],
          [
            -84.6061803,
            34.6481796
          ],
          [
            -84.6062635,
            34.6482082
          ],
          [
            -84.606352,
            34.6482678
          ],
          [
            -84.6064486,
            34.6483495
          ],
          [
            -84.6067141,
            34.6485966
          ],
          [
            -84.6069126,
            34.64874
          ],
          [
            -84.6070226,
            34.6488172
          ],
          [
            -84.6072184,
            34.6489916
          ],
          [
            -84.6072961,
            34.6490423
          ],
          [
            -84.6073927,
            34.6490644
          ],
          [
            -84.6074651,
            34.6490622
          ],
          [
            -84.6076234,
            34.6490489
          ],
          [
            -84.6078594,
            34.6489893
          ],
          [
            -84.6079962,
            34.6489695
          ],
          [
            -84.6081169,
            34.6489871
          ],
          [
            -84.6082,
            34.649007
          ],
          [
            -84.6082859,
            34.6490533
          ],
          [
            -84.608361,
            34.6490732
          ],
          [
            -84.608471,
            34.6490732
          ],
          [
            -84.6086507,
            34.6491129
          ],
          [
            -84.6087311,
            34.6491438
          ],
          [
            -84.608766,
            34.6491747
          ],
          [
            -84.6087579,
            34.6492144
          ],
          [
            -84.608715,
            34.6492365
          ],
          [
            -84.6086077,
            34.6492409
          ],
          [
            -84.6084951,
            34.6492188
          ],
          [
            -84.6082909,
            34.6491838
          ],
          [
            -84.608069,
            34.6491723
          ],
          [
            -84.6079219,
            34.649203
          ],
          [
            -84.6078005,
            34.6492607
          ],
          [
            -84.6077235,
            34.6493144
          ],
          [
            -84.6077025,
            34.6493797
          ],
          [
            -84.6077141,
            34.6494335
          ],
          [
            -84.6077421,
            34.6494777
          ],
          [
            -84.6078332,
            34.6495622
          ],
          [
            -84.6078869,
            34.6496199
          ],
          [
            -84.6079173,
            34.6497044
          ],
          [
            -84.6079453,
            34.6497966
          ],
          [
            -84.6079943,
            34.649835
          ],
          [
            -84.6080924,
            34.6498657
          ],
          [
            -84.6082091,
            34.6498734
          ],
          [
            -84.6082792,
            34.6499099
          ],
          [
            -84.6083259,
            34.649956
          ],
          [
            -84.6083212,
            34.6499963
          ],
          [
            -84.6082862,
            34.6500079
          ],
          [
            -84.6080761,
            34.6500117
          ],
          [
            -84.6080013,
            34.650004
          ],
          [
            -84.6079313,
            34.6499771
          ],
          [
            -84.6078426,
            34.6499656
          ],
          [
            -84.6077748,
            34.649956
          ],
          [
            -84.6076768,
            34.649908
          ],
          [
            -84.607518,
            34.649787
          ],
          [
            -84.6074059,
            34.6496832
          ],
          [
            -84.6072448,
            34.6496064
          ],
          [
            -84.6069926,
            34.6494912
          ],
          [
            -84.6068211,
            34.6493939
          ],
          [
            -84.6066867,
            34.6493298
          ],
          [
            -84.6064885,
            34.649324
          ],
          [
            -84.6064177,
            34.649289
          ],
          [
            -84.6062832,
            34.6492046
          ],
          [
            -84.6061452,
            34.6492017
          ],
          [
            -84.6060708,
            34.6491551
          ],
          [
            -84.6059717,
            34.6490881
          ],
          [
            -84.6059257,
            34.6490619
          ],
          [
            -84.605894,
            34.649094
          ],
          [
            -84.605894,
            34.6491712
          ],
          [
            -84.6058725,
            34.6492528
          ],
          [
            -84.605843,
            34.6492683
          ],
          [
            -84.605776,
            34.6492484
          ],
          [
            -84.6056928,
            34.6492308
          ],
          [
            -84.6056285,
            34.6492793
          ],
          [
            -84.6054836,
            34.6493477
          ],
          [
            -84.6053978,
            34.6494073
          ],
          [
            -84.6053871,
            34.6494933
          ],
          [
            -84.6053848,
            34.649545
          ]
        ]
      },
      "id": "way/1318541063"
    },
    {
      "type": "Feature",
      "properties": {
        "@id": "way/1318541064",
        "highway": "path",
        "source": "Strava Global Heatmap"
      },
      "geometry": {
        "type": "LineString",
        "coordinates": [
          [
            -84.6023298,
            34.6529705
          ],
          [
            -84.6023411,
            34.6528616
          ],
          [
            -84.6023598,
            34.6527982
          ],
          [
            -84.6023971,
            34.652754
          ],
          [
            -84.6024648,
            34.6527079
          ],
          [
            -84.6025349,
            34.6526772
          ],
          [
            -84.6026096,
            34.6526407
          ],
          [
            -84.602647,
            34.6526099
          ],
          [
            -84.602654,
            34.6525715
          ],
          [
            -84.6026376,
            34.6525331
          ],
          [
            -84.6026119,
            34.6525005
          ],
          [
            -84.6025606,
            34.6524351
          ],
          [
            -84.6024812,
            34.6523314
          ],
          [
            -84.6024181,
            34.6521912
          ],
          [
            -84.6023948,
            34.6520971
          ],
          [
            -84.6024041,
            34.6519665
          ],
          [
            -84.6024193,
            34.651796
          ],
          [
            -84.602424,
            34.6517263
          ],
          [
            -84.6023993,
            34.6516325
          ],
          [
            -84.6023377,
            34.6514982
          ],
          [
            -84.6022653,
            34.6513448
          ],
          [
            -84.6022221,
            34.6512105
          ],
          [
            -84.6022083,
            34.6510888
          ],
          [
            -84.6022298,
            34.6509824
          ],
          [
            -84.6023007,
            34.6508721
          ],
          [
            -84.6023731,
            34.6508202
          ],
          [
            -84.6024455,
            34.6508075
          ],
          [
            -84.6025626,
            34.6508189
          ],
          [
            -84.6026566,
            34.6508468
          ],
          [
            -84.602712,
            34.6508937
          ],
          [
            -84.6027737,
            34.6509545
          ],
          [
            -84.6028137,
            34.6509874
          ],
          [
            -84.6028553,
            34.6509912
          ],
          [
            -84.6028954,
            34.6509545
          ],
          [
            -84.6029308,
            34.6508506
          ],
          [
            -84.602977,
            34.6506884
          ],
          [
            -84.6029862,
            34.6506187
          ],
          [
            -84.6030001,
            34.6505654
          ],
          [
            -84.6030479,
            34.6505021
          ],
          [
            -84.6031341,
            34.65044
          ],
          [
            -84.6033113,
            34.6503348
          ],
          [
            -84.6034037,
            34.6502575
          ],
          [
            -84.6034345,
            34.6502119
          ],
          [
            -84.603453,
            34.650132
          ],
          [
            -84.6034576,
            34.6500357
          ],
          [
            -84.6034253,
            34.6499622
          ],
          [
            -84.6033714,
            34.6499064
          ],
          [
            -84.6032959,
            34.6498165
          ],
          [
            -84.6032682,
            34.6497708
          ],
          [
            -84.6032466,
            34.6496986
          ],
          [
            -84.6032404,
            34.6495402
          ],
          [
            -84.6032268,
            34.6493502
          ],
          [
            -84.6033155,
            34.6491082
          ],
          [
            -84.6033809,
            34.6490006
          ],
          [
            -84.6035303,
            34.6488508
          ],
          [
            -84.6036237,
            34.6487355
          ],
          [
            -84.6037265,
            34.6485588
          ],
          [
            -84.6038105,
            34.6483782
          ],
          [
            -84.6038666,
            34.6482899
          ],
          [
            -84.603932,
            34.6482476
          ],
          [
            -84.6041048,
            34.6482246
          ],
          [
            -84.6042028,
            34.6481861
          ],
          [
            -84.6042495,
            34.6481362
          ],
          [
            -84.6043569,
            34.6479864
          ],
          [
            -84.6044328,
            34.6479075
          ],
          [
            -84.6045177,
            34.6478754
          ],
          [
            -84.6046451,
            34.647823
          ],
          [
            -84.6047265,
            34.6477794
          ],
          [
            -84.6048079,
            34.6477386
          ],
          [
            -84.6049177,
            34.6477182
          ],
          [
            -84.6050132,
            34.6477124
          ],
          [
            -84.6050486,
            34.6476745
          ],
          [
            -84.6050557,
            34.6475756
          ],
          [
            -84.6050451,
            34.6474329
          ],
          [
            -84.6050203,
            34.6473747
          ],
          [
            -84.6049778,
            34.6473514
          ],
          [
            -84.6049106,
            34.6473455
          ],
          [
            -84.6048752,
            34.6473979
          ],
          [
            -84.6048494,
            34.6474486
          ],
          [
            -84.6048034,
            34.6474748
          ],
          [
            -84.6047131,
            34.6475025
          ],
          [
            -84.6046176,
            34.6475767
          ],
          [
            -84.6044955,
            34.6477165
          ],
          [
            -84.6044282,
            34.6477529
          ],
          [
            -84.6043114,
            34.6478533
          ],
          [
            -84.6042682,
            34.6479219
          ],
          [
            -84.6042052,
            34.6479888
          ],
          [
            -84.6041259,
            34.6480758
          ],
          [
            -84.6040446,
            34.6481343
          ],
          [
            -84.6039328,
            34.6481912
          ],
          [
            -84.6038413,
            34.6482196
          ],
          [
            -84.6037579,
            34.6483015
          ],
          [
            -84.6036909,
            34.6484286
          ],
          [
            -84.6035852,
            34.6485858
          ],
          [
            -84.6034678,
            34.648713
          ],
          [
            -84.6033369,
            34.6488644
          ],
          [
            -84.6032204,
            34.6490001
          ],
          [
            -84.6032095,
            34.6490128
          ],
          [
            -84.6031175,
            34.6491264
          ],
          [
            -84.6030467,
            34.6493221
          ],
          [
            -84.6030093,
            34.6495219
          ],
          [
            -84.6030093,
            34.6497255
          ],
          [
            -84.6030747,
            34.6499599
          ],
          [
            -84.603084,
            34.6500905
          ],
          [
            -84.6030093,
            34.6501827
          ],
          [
            -84.6028459,
            34.6502595
          ],
          [
            -84.6026456,
            34.6503371
          ],
          [
            -84.6025219,
            34.6503659
          ],
          [
            -84.6024215,
            34.6503908
          ],
          [
            -84.6023654,
            34.6504158
          ],
          [
            -84.6023024,
            34.650483
          ],
          [
            -84.6020455,
            34.6508422
          ],
          [
            -84.6019988,
            34.6508999
          ],
          [
            -84.6019895,
            34.6509633
          ],
          [
            -84.6019942,
            34.6510555
          ],
          [
            -84.6020035,
            34.651188
          ],
          [
            -84.6019825,
            34.6512514
          ],
          [
            -84.6019708,
            34.6513148
          ],
          [
            -84.6019825,
            34.6514031
          ],
          [
            -84.6020012,
            34.6515472
          ],
          [
            -84.6020105,
            34.6517393
          ],
          [
            -84.6020129,
            34.6519525
          ],
          [
            -84.6020409,
            34.6520312
          ],
          [
            -84.6020969,
            34.6521657
          ],
          [
            -84.6021109,
            34.6522464
          ],
          [
            -84.6020992,
            34.6523194
          ],
          [
            -84.6020796,
            34.6523718
          ],
          [
            -84.6020399,
            34.6524601
          ],
          [
            -84.6019885,
            34.6525792
          ],
          [
            -84.6019418,
            34.6526503
          ],
          [
            -84.6018858,
            34.6527117
          ],
          [
            -84.601797,
            34.6527617
          ],
          [
            -84.6016826,
            34.6528059
          ],
          [
            -84.6014713,
            34.6528566
          ]
        ]
      },
      "id": "way/1318541064"
    },
    {
      "type": "Feature",
      "properties": {
        "@id": "way/1318541066",
        "highway": "path",
        "source": "Strava Global Heatmap"
      },
      "geometry": {
        "type": "LineString",
        "coordinates": [
          [
            -84.6024101,
            34.6532366
          ],
          [
            -84.6023264,
            34.6533091
          ],
          [
            -84.602289,
            34.6534358
          ],
          [
            -84.6022653,
            34.6535229
          ],
          [
            -84.6021536,
            34.6536932
          ],
          [
            -84.6020182,
            34.6538392
          ],
          [
            -84.6019948,
            34.6539084
          ],
          [
            -84.6019435,
            34.6539737
          ],
          [
            -84.6018687,
            34.6539775
          ],
          [
            -84.60178,
            34.6539813
          ],
          [
            -84.6017146,
            34.6540236
          ],
          [
            -84.6016212,
            34.654135
          ],
          [
            -84.6015232,
            34.6541696
          ],
          [
            -84.6014298,
            34.6541581
          ],
          [
            -84.6013597,
            34.6541926
          ],
          [
            -84.6012663,
            34.6542464
          ],
          [
            -84.6010608,
            34.6542541
          ],
          [
            -84.6007293,
            34.6542618
          ],
          [
            -84.6005405,
            34.6542497
          ],
          [
            -84.5997902,
            34.6539411
          ],
          [
            -84.5996557,
            34.653848
          ],
          [
            -84.5995637,
            34.6537024
          ],
          [
            -84.5994221,
            34.6533298
          ],
          [
            -84.5992381,
            34.6531318
          ],
          [
            -84.5991885,
            34.652928
          ],
          [
            -84.5990894,
            34.6527766
          ],
          [
            -84.5988488,
            34.6523981
          ],
          [
            -84.5986718,
            34.6519439
          ],
          [
            -84.5985444,
            34.651548
          ],
          [
            -84.5984878,
            34.651449
          ],
          [
            -84.5983674,
            34.6514665
          ],
          [
            -84.5981551,
            34.6515247
          ],
          [
            -84.5973835,
            34.6515829
          ],
          [
            -84.5970862,
            34.6515713
          ],
          [
            -84.5969801,
            34.6515247
          ],
          [
            -84.5968951,
            34.6514199
          ],
          [
            -84.596796,
            34.6510181
          ],
          [
            -84.5966828,
            34.6508376
          ],
          [
            -84.5964563,
            34.6506804
          ],
          [
            -84.596251,
            34.6505814
          ],
          [
            -84.5960811,
            34.650628
          ],
          [
            -84.5960174,
            34.6506862
          ]
        ]
      },
      "id": "way/1318541066"
    },
    {
      "type": "Feature",
      "properties": {
        "@id": "way/1318542792",
        "highway": "path",
        "source": "Strava Global Heatmap"
      },
      "geometry": {
        "type": "LineString",
        "coordinates": [
          [
            -84.599575,
            34.6508922
          ],
          [
            -84.5995071,
            34.650813
          ],
          [
            -84.5994594,
            34.6507762
          ],
          [
            -84.5994193,
            34.6507636
          ],
          [
            -84.5993608,
            34.6507876
          ],
          [
            -84.5993346,
            34.650799
          ],
          [
            -84.5992961,
            34.6508028
          ],
          [
            -84.5992161,
            34.6507904
          ]
        ]
      },
      "id": "way/1318542792"
    },
    {
      "type": "Feature",
      "properties": {
        "@id": "way/1318542793",
        "highway": "path",
        "source": "Strava Global Heatmap"
      },
      "geometry": {
        "type": "LineString",
        "coordinates": [
          [
            -84.5996115,
            34.6508749
          ],
          [
            -84.5996504,
            34.6508941
          ],
          [
            -84.5997582,
            34.6508992
          ],
          [
            -84.5998307,
            34.6508916
          ],
          [
            -84.5999323,
            34.6508611
          ],
          [
            -84.6000047,
            34.6508066
          ],
          [
            -84.6000648,
            34.6507522
          ],
          [
            -84.6001357,
            34.6507217
          ],
          [
            -84.6002204,
            34.6507103
          ],
          [
            -84.6003544,
            34.6507078
          ],
          [
            -84.6004315,
            34.6506875
          ],
          [
            -84.6005516,
            34.6506204
          ],
          [
            -84.6006826,
            34.6505329
          ],
          [
            -84.6007981,
            34.6504442
          ],
          [
            -84.6009059,
            34.6503441
          ],
          [
            -84.6009583,
            34.6502313
          ],
          [
            -84.6010105,
            34.6501212
          ],
          [
            -84.6010386,
            34.649956
          ],
          [
            -84.6010853,
            34.6498792
          ],
          [
            -84.6012254,
            34.6497639
          ],
          [
            -84.6014495,
            34.6496602
          ],
          [
            -84.6015476,
            34.6495565
          ],
          [
            -84.601585,
            34.6494758
          ],
          [
            -84.6016643,
            34.6493721
          ],
          [
            -84.6019399,
            34.6492146
          ],
          [
            -84.6020239,
            34.6491377
          ],
          [
            -84.6021434,
            34.6490675
          ],
          [
            -84.6022104,
            34.6490344
          ],
          [
            -84.6023499,
            34.6490102
          ],
          [
            -84.6024492,
            34.6489991
          ],
          [
            -84.6025403,
            34.6489727
          ],
          [
            -84.602704,
            34.6488756
          ],
          [
            -84.6028193,
            34.6488292
          ],
          [
            -84.6029883,
            34.6487851
          ],
          [
            -84.6030863,
            34.6487543
          ],
          [
            -84.6031331,
            34.6487189
          ],
          [
            -84.6031868,
            34.6486152
          ],
          [
            -84.6032163,
            34.6485247
          ],
          [
            -84.6032189,
            34.6484343
          ],
          [
            -84.6031787,
            34.6483107
          ],
          [
            -84.6031653,
            34.6482577
          ],
          [
            -84.6031787,
            34.6481474
          ],
          [
            -84.6032232,
            34.6480045
          ],
          [
            -84.6032607,
            34.647903
          ],
          [
            -84.603309,
            34.6478655
          ],
          [
            -84.6034243,
            34.647786
          ],
          [
            -84.6034887,
            34.6477022
          ],
          [
            -84.6035155,
            34.6476272
          ],
          [
            -84.6035075,
            34.6475742
          ],
          [
            -84.6034538,
            34.6475654
          ],
          [
            -84.60336,
            34.6475764
          ],
          [
            -84.6031856,
            34.6476404
          ],
          [
            -84.6028289,
            34.6478588
          ],
          [
            -84.602786,
            34.6479405
          ],
          [
            -84.6027028,
            34.6480243
          ],
          [
            -84.6025714,
            34.6481214
          ],
          [
            -84.6025124,
            34.6481832
          ],
          [
            -84.6024212,
            34.6483024
          ],
          [
            -84.6022656,
            34.6484105
          ],
          [
            -84.6022066,
            34.6483972
          ],
          [
            -84.6021326,
            34.6483536
          ],
          [
            -84.6020725,
            34.648339
          ],
          [
            -84.6019964,
            34.6483565
          ],
          [
            -84.601853,
            34.6484671
          ],
          [
            -84.6018088,
            34.6485705
          ],
          [
            -84.6018035,
            34.6487073
          ],
          [
            -84.6017752,
            34.6488107
          ],
          [
            -84.6016956,
            34.6489359
          ],
          [
            -84.6015593,
            34.6490684
          ],
          [
            -84.6013947,
            34.6491776
          ],
          [
            -84.6011664,
            34.6492809
          ],
          [
            -84.6010567,
            34.6493493
          ],
          [
            -84.6008656,
            34.6495124
          ],
          [
            -84.6007612,
            34.6495852
          ],
          [
            -84.6006639,
            34.6496114
          ],
          [
            -84.6005135,
            34.6496216
          ],
          [
            -84.6004639,
            34.6496099
          ],
          [
            -84.6003914,
            34.649559
          ],
          [
            -84.6003577,
            34.6495022
          ],
          [
            -84.6003577,
            34.6493552
          ],
          [
            -84.6003719,
            34.6492896
          ],
          [
            -84.6004285,
            34.649211
          ],
          [
            -84.6004852,
            34.6491805
          ],
          [
            -84.600648,
            34.6491732
          ],
          [
            -84.6007152,
            34.6491601
          ],
          [
            -84.6007577,
            34.649115
          ],
          [
            -84.6009276,
            34.6488864
          ],
          [
            -84.6009842,
            34.6488049
          ],
          [
            -84.6009913,
            34.6487059
          ],
          [
            -84.6009559,
            34.6486142
          ],
          [
            -84.6009081,
            34.6485283
          ],
          [
            -84.6008638,
            34.6484701
          ],
          [
            -84.6007883,
            34.648419
          ],
          [
            -84.6007375,
            34.6483755
          ],
          [
            -84.6006643,
            34.6483103
          ],
          [
            -84.6006521,
            34.6482769
          ],
          [
            -84.600648,
            34.6482167
          ],
          [
            -84.600644,
            34.6481013
          ],
          [
            -84.6006338,
            34.648026
          ],
          [
            -84.6005911,
            34.6479759
          ],
          [
            -84.6005383,
            34.6479658
          ],
          [
            -84.60052,
            34.6479859
          ],
          [
            -84.6005159,
            34.6480344
          ],
          [
            -84.6005098,
            34.6481147
          ],
          [
            -84.6004956,
            34.6481816
          ],
          [
            -84.600459,
            34.6482284
          ],
          [
            -84.6004041,
            34.6482685
          ],
          [
            -84.6003716,
            34.6483137
          ],
          [
            -84.6003777,
            34.6483555
          ],
          [
            -84.6004061,
            34.6484107
          ],
          [
            -84.6004488,
            34.6484842
          ],
          [
            -84.6004692,
            34.6485595
          ],
          [
            -84.6004407,
            34.6486013
          ],
          [
            -84.6003838,
            34.6486197
          ],
          [
            -84.600335,
            34.6486097
          ],
          [
            -84.6002984,
            34.6485862
          ],
          [
            -84.6002374,
            34.648516
          ],
          [
            -84.6001947,
            34.6484959
          ],
          [
            -84.6000342,
            34.6484725
          ],
          [
            -84.5998959,
            34.6484642
          ],
          [
            -84.5998085,
            34.6484826
          ],
          [
            -84.5997414,
            34.6485277
          ],
          [
            -84.5997028,
            34.6485946
          ],
          [
            -84.5996906,
            34.6486883
          ],
          [
            -84.5996764,
            34.6487485
          ],
          [
            -84.5996378,
            34.6488003
          ],
          [
            -84.5995382,
            34.6488521
          ],
          [
            -84.5994487,
            34.6488923
          ],
          [
            -84.5993491,
            34.6489107
          ],
          [
            -84.5991784,
            34.648904
          ],
          [
            -84.5990361,
            34.648899
          ],
          [
            -84.5989629,
            34.6489173
          ],
          [
            -84.5989202,
            34.6489474
          ],
          [
            -84.5988836,
            34.6490177
          ],
          [
            -84.598825,
            34.6491608
          ],
          [
            -84.5988016,
            34.6492722
          ],
          [
            -84.5988623,
            34.6492991
          ],
          [
            -84.5989371,
            34.6492722
          ],
          [
            -84.5990865,
            34.6492415
          ],
          [
            -84.5992359,
            34.6492568
          ],
          [
            -84.599348,
            34.6493145
          ],
          [
            -84.5993807,
            34.6493836
          ],
          [
            -84.5994975,
            34.6494758
          ],
          [
            -84.5995675,
            34.6495526
          ],
          [
            -84.5995675,
            34.6496909
          ],
          [
            -84.5994975,
            34.6497793
          ],
          [
            -84.5993714,
            34.6498062
          ],
          [
            -84.5992406,
            34.6498408
          ],
          [
            -84.5991706,
            34.649933
          ],
          [
            -84.5991145,
            34.6500751
          ],
          [
            -84.5991005,
            34.6501558
          ],
          [
            -84.5991145,
            34.6502096
          ],
          [
            -84.5992406,
            34.6502442
          ],
          [
            -84.5992826,
            34.6502941
          ],
          [
            -84.5993153,
            34.6503863
          ],
          [
            -84.5994181,
            34.6504516
          ],
          [
            -84.5995628,
            34.6504516
          ],
          [
            -84.5996422,
            34.6504324
          ],
          [
            -84.5997917,
            34.6503133
          ],
          [
            -84.6001232,
            34.6501865
          ],
          [
            -84.600268,
            34.6501443
          ],
          [
            -84.6003883,
            34.6501755
          ],
          [
            -84.6004422,
            34.6502351
          ],
          [
            -84.6004731,
            34.6503187
          ],
          [
            -84.6004576,
            34.6504252
          ],
          [
            -84.6004268,
            34.6505329
          ],
          [
            -84.6003929,
            34.6505747
          ],
          [
            -84.6003436,
            34.6506127
          ],
          [
            -84.6002481,
            34.6506558
          ],
          [
            -84.6001249,
            34.6506685
          ],
          [
            -84.6000171,
            34.6506837
          ],
          [
            -84.5999616,
            34.6507053
          ],
          [
            -84.599883,
            34.6507509
          ],
          [
            -84.5998368,
            34.6507737
          ],
          [
            -84.5997259,
            34.6507978
          ],
          [
            -84.5996396,
            34.6508295
          ],
          [
            -84.5996115,
            34.6508749
          ]
        ]
      },
      "id": "way/1318542793"
    },
    {
      "type": "Feature",
      "properties": {
        "@id": "way/1318544368",
        "highway": "path",
        "source": "Strava Global Heatmap"
      },
      "geometry": {
        "type": "LineString",
        "coordinates": [
          [
            -84.6083534,
            34.6505568
          ],
          [
            -84.6083283,
            34.6503932
          ],
          [
            -84.6082993,
            34.6502356
          ]
        ]
      },
      "id": "way/1318544368"
    },
    {
      "type": "Feature",
      "properties": {
        "@id": "way/1318544369",
        "highway": "path",
        "source": "Strava Global Heatmap"
      },
      "geometry": {
        "type": "LineString",
        "coordinates": [
          [
            -84.6085943,
            34.6501975
          ],
          [
            -84.6084637,
            34.6501039
          ],
          [
            -84.6083212,
            34.6499963
          ]
        ]
      },
      "id": "way/1318544369"
    },
    {
      "type": "Feature",
      "properties": {
        "@id": "way/1318545558",
        "highway": "path",
        "source": "Strava Global Heatmap"
      },
      "geometry": {
        "type": "LineString",
        "coordinates": [
          [
            -84.6032204,
            34.6490001
          ],
          [
            -84.6031721,
            34.6488933
          ],
          [
            -84.6030863,
            34.6487543
          ]
        ]
      },
      "id": "way/1318545558"
    }
  ]
}